{"type": "FeatureCollection", "features": [ {"type": "Feature", "properties": {"norad_id": 33917, "name": "COSMOS 2251 DEB", "group": "cosmos-2251-debris", "lat": 48.38886149078605, "lon": -96.68593619305064, "alt_km": 911.6695970048086, "timestamp": "2025-12-25T03:55:56.760305+00:00", "meta": {"OBJECT_NAME": "COSMOS 2251 DEB", "OBJECT_ID": "1993-036DW", "EPOCH": "2025-12-24T00:58:53.208768", "MEAN_MOTION": 13.69383777, "ECCENTRICITY": 0.03311761, "INCLINATION": 74.1073, "RA_OF_ASC_NODE": 103.8634, "ARG_OF_PERICENTER": 202.3577, "MEAN_ANOMALY": 156.2823, "EPHEMERIS_TYPE": 0, "CLASSIFICATION_TYPE": "U", "NORAD_CAT_ID": 33917, "ELEMENT_SET_NO": 999, "REV_AT_EPOCH": 83888, "BSTAR": 0.00089838854, "MEAN_MOTION_DOT": 1.126e-05, "MEAN_MOTION_DDOT": 0}, "tle": {"line1": "1 33917U 93036DW  25358.04089362  .00001126  00000+0  89839-3 0  9998", "line2": "2 33917  74.1073 103.8634 0331176 202.3577 156.2823 13.69383777838885"}}, "geometry": {"type": "Point", "coordinates": [-96.68593619305064, 48.38886149078605]}}, {"type": "Feature", "properties": {"norad_id": 33920, "name": "COSMOS 2251 DEB", "group": "cosmos-2251-debris", "lat": -48.55667748775945, "lon": 113.70159537618801, "alt_km": 686.7891200530694, "timestamp": "2025-12-25T03:55:56.760316+00:00", "meta": {"OBJECT_NAME": "COSMOS 2251 DEB", "OBJECT_ID": "1993-036DZ", "EPOCH": "2025-12-24T03:49:29.683776", "MEAN_MOTION": 14.58442964, "ECCENTRICITY": 0.00377584, "INCLINATION": 74.0614, "RA_OF_ASC_NODE": 276.7258, "ARG_OF_PERICENTER": 281.5069, "MEAN_ANOMALY": 78.1857, "EPHEMERIS_TYPE": 0, "CLASSIFICATION_TYPE": "U", "NORAD_CAT_ID": 33920, "ELEMENT_SET_NO": 999, "REV_AT_EPOCH": 88281, "BSTAR": 0.001697106, "MEAN_MOTION_DOT": 7.93e-05, "MEAN_MOTION_DDOT": 0}, "tle": {"line1": "1 33920U 93036DZ  25358.15937134  .00007930  00000+0  16971-2 0  9998", "line2": "2 33920  74.0614 276.7258 0037758 281.5069  78.1857 14.58442964882819"}}, "geometry": {"type": "Point", "coordinates": [113.70159537618801, -48.55667748775945]}}, {"type": "Feature", "properties": {"norad_id": 33922, "name": "COSMOS 2251 DEB", "group": "cosmos-2251-debris", "lat": -20.613219604124218, "lon": 118.29114592527279, "alt_km": 736.1954866240058, "timestamp": "2025-12-25T03:55:56.760326+00:00", "meta": {"OBJECT_NAME": "COSMOS 2251 DEB", "OBJECT_ID": "1993-036EB", "EPOCH": "2025-12-24T18:40:21.249408", "MEAN_MOTION": 14.49550828, "ECCENTRICITY": 0.0023113, "INCLINATION": 74.0468, "RA_OF_ASC_NODE": 125.191, "ARG_OF_PERICENTER": 234.4874, "MEAN_ANOMALY": 251.3114, "EPHEMERIS_TYPE": 0, "CLASSIFICATION_TYPE": "U", "NORAD_CAT_ID": 33922, "ELEMENT_SET_NO": 999, "REV_AT_EPOCH": 88752, "BSTAR": 0.0005096, "MEAN_MOTION_DOT": 1.934e-05, "MEAN_MOTION_DDOT": 0}, "tle": {"line1": "1 33922U 93036EB  25358.77802372  .00001934  00000+0  50960-3 0  9998", "line2": "2 33922  74.0468 125.1910 0023113 234.4874 251.3114 14.49550828887524"}}, "geometry": {"type": "Point", "coordinates": [118.29114592527279, -20.613219604124218]}}, {"type": "Feature", "properties": {"norad_id": 33924, "name": "COSMOS 2251 DEB", "group": "cosmos-2251-debris", "lat": 30.272094350480007, "lon": 60.5343247486411, "alt_km": 1276.7070726450002, "timestamp": "2025-12-25T03:55:56.760337+00:00", "meta": {"OBJECT_NAME": "COSMOS 2251 DEB", "OBJECT_ID": "1993-036ED", "EPOCH": "2025-12-24T20:02:59.061120", "MEAN_MOTION": 13.50239131, "ECCENTRICITY": 0.0403794, "INCLINATION": 73.913, "RA_OF_ASC_NODE": 250.7588, "ARG_OF_PERICENTER": 284.0756, "MEAN_ANOMALY": 71.5791, "EPHEMERIS_TYPE": 0, "CLASSIFICATION_TYPE": "U", "NORAD_CAT_ID": 33924, "ELEMENT_SET_NO": 999, "REV_AT_EPOCH": 82902, "BSTAR": 0.00042333, "MEAN_MOTION_DOT": 4.24e-06, "MEAN_MOTION_DDOT": 0}, "tle": {"line1": "1 33924U 93036ED  25358.83540580  .00000424  00000+0  42333-3 0  9995", "line2": "2 33924  73.9130 250.7588 0403794 284.0756  71.5791 13.50239131829029"}}, "geometry": {"type": "Point", "coordinates": [60.5343247486411, 30.272094350480007]}}, {"type": "Feature", "properties": {"norad_id": 33928, "name": "COSMOS 2251 DEB", "group": "cosmos-2251-debris", "lat": 73.83219499958732, "lon": 113.2030567930476, "alt_km": 753.3825212602896, "timestamp": "2025-12-25T03:55:56.760347+00:00", "meta": {"OBJECT_NAME": "COSMOS 2251 DEB", "OBJECT_ID": "1993-036EH", "EPOCH": "2025-12-24T19:13:57.192960", "MEAN_MOTION": 14.47426209, "ECCENTRICITY": 0.006203, "INCLINATION": 73.9253, "RA_OF_ASC_NODE": 29.8554, "ARG_OF_PERICENTER": 321.5269, "MEAN_ANOMALY": 38.1474, "EPHEMERIS_TYPE": 0, "CLASSIFICATION_TYPE": "U", "NORAD_CAT_ID": 33928, "ELEMENT_SET_NO": 999, "REV_AT_EPOCH": 88819, "BSTAR": 0.00024854, "MEAN_MOTION_DOT": 9.04e-06, "MEAN_MOTION_DDOT": 0}, "tle": {"line1": "1 33928U 93036EH  25358.80135640  .00000904  00000+0  24854-3 0  9994", "line2": "2 33928  73.9253  29.8554 0062030 321.5269  38.1474 14.47426209888198"}}, "geometry": {"type": "Point", "coordinates": [113.2030567930476, 73.83219499958732]}}, {"type": "Feature", "properties": {"norad_id": 33932, "name": "COSMOS 2251 DEB", "group": "cosmos-2251-debris", "lat": -18.191736760487856, "lon": 118.40120638919012, "alt_km": 792.1744237277753, "timestamp": "2025-12-25T03:55:56.760358+00:00", "meta": {"OBJECT_NAME": "COSMOS 2251 DEB", "OBJECT_ID": "1993-036EM", "EPOCH": "2025-12-24T20:20:10.087872", "MEAN_MOTION": 14.38792115, "ECCENTRICITY": 0.003593, "INCLINATION": 74.0343, "RA_OF_ASC_NODE": 293.5864, "ARG_OF_PERICENTER": 6.8678, "MEAN_ANOMALY": 353.2961, "EPHEMERIS_TYPE": 0, "CLASSIFICATION_TYPE": "U", "NORAD_CAT_ID": 33932, "ELEMENT_SET_NO": 999, "REV_AT_EPOCH": 88172, "BSTAR": 0.00045811, "MEAN_MOTION_DOT": 1.392e-05, "MEAN_MOTION_DDOT": 0}, "tle": {"line1": "1 33932U 93036EM  25358.84733898  .00001392  00000+0  45811-3 0  9990", "line2": "2 33932  74.0343 293.5864 0035930   6.8678 353.2961 14.38792115881721"}}, "geometry": {"type": "Point", "coordinates": [118.40120638919012, -18.191736760487856]}}, {"type": "Feature", "properties": {"norad_id": 33933, "name": "COSMOS 2251 DEB", "group": "cosmos-2251-debris", "lat": 7.551898517329806, "lon": -144.67434576971473, "alt_km": 813.9423936530657, "timestamp": "2025-12-25T03:55:56.760368+00:00", "meta": {"OBJECT_NAME": "COSMOS 2251 DEB", "OBJECT_ID": "1993-036EN", "EPOCH": "2025-12-24T13:44:20.302080", "MEAN_MOTION": 14.33506343, "ECCENTRICITY": 0.0071008, "INCLINATION": 74.0888, "RA_OF_ASC_NODE": 38.5704, "ARG_OF_PERICENTER": 43.4492, "MEAN_ANOMALY": 317.2224, "EPHEMERIS_TYPE": 0, "CLASSIFICATION_TYPE": "U", "NORAD_CAT_ID": 33933, "ELEMENT_SET_NO": 999, "REV_AT_EPOCH": 87954, "BSTAR": 0.00025666, "MEAN_MOTION_DOT": 7.05e-06, "MEAN_MOTION_DDOT": 0}, "tle": {"line1": "1 33933U 93036EN  25358.57245720  .00000705  00000+0  25666-3 0  9996", "line2": "2 33933  74.0888  38.5704 0071008  43.4492 317.2224 14.33506343879543"}}, "geometry": {"type": "Point", "coordinates": [-144.67434576971473, 7.551898517329806]}}, {"type": "Feature", "properties": {"norad_id": 33934, "name": "COSMOS 2251 DEB", "group": "cosmos-2251-debris", "lat": -5.152153193053771, "lon": 75.42099607392427, "alt_km": 708.6827810927389, "timestamp": "2025-12-25T03:55:56.760379+00:00", "meta": {"OBJECT_NAME": "COSMOS 2251 DEB", "OBJECT_ID": "1993-036EP", "EPOCH": "2025-12-24T14:47:37.347936", "MEAN_MOTION": 14.59201194, "ECCENTRICITY": 0.0015139, "INCLINATION": 74.038, "RA_OF_ASC_NODE": 77.9425, "ARG_OF_PERICENTER": 201.5334, "MEAN_ANOMALY": 158.5197, "EPHEMERIS_TYPE": 0, "CLASSIFICATION_TYPE": "U", "NORAD_CAT_ID": 33934, "ELEMENT_SET_NO": 999, "REV_AT_EPOCH": 88912, "BSTAR": 0.00085512, "MEAN_MOTION_DOT": 4.012e-05, "MEAN_MOTION_DDOT": 0}, "tle": {"line1": "1 33934U 93036EP  25358.61640449  .00004012  00000+0  85512-3 0  9990", "line2": "2 33934  74.0380  77.9425 0015139 201.5334 158.5197 14.59201194889127"}}, "geometry": {"type": "Point", "coordinates": [75.42099607392427, -5.152153193053771]}}, {"type": "Feature", "properties": {"norad_id": 33936, "name": "COSMOS 2251 DEB", "group": "cosmos-2251-debris", "lat": -24.895198361487925, "lon": 6.095031595589901, "alt_km": 715.829169252368, "timestamp": "2025-12-25T03:55:56.760389+00:00", "meta": {"OBJECT_NAME": "COSMOS 2251 DEB", "OBJECT_ID": "1993-036ER", "EPOCH": "2025-12-23T19:10:08.490432", "MEAN_MOTION": 14.60333945, "ECCENTRICITY": 0.00267842, "INCLINATION": 74.0179, "RA_OF_ASC_NODE": 16.3464, "ARG_OF_PERICENTER": 169.1135, "MEAN_ANOMALY": 191.0617, "EPHEMERIS_TYPE": 0, "CLASSIFICATION_TYPE": "U", "NORAD_CAT_ID": 33936, "ELEMENT_SET_NO": 999, "REV_AT_EPOCH": 89051, "BSTAR": 0.00060550854, "MEAN_MOTION_DOT": 2.913e-05, "MEAN_MOTION_DDOT": 0}, "tle": {"line1": "1 33936U 93036ER  25357.79870938  .00002913  00000+0  60551-3 0  9992", "line2": "2 33936  74.0179  16.3464 0026784 169.1135 191.0617 14.60333945890517"}}, "geometry": {"type": "Point", "coordinates": [6.095031595589901, -24.895198361487925]}}, {"type": "Feature", "properties": {"norad_id": 33938, "name": "COSMOS 2251 DEB", "group": "cosmos-2251-debris", "lat": -52.28658104715733, "lon": 162.26395905180246, "alt_km": 733.4268179014598, "timestamp": "2025-12-25T03:55:56.760399+00:00", "meta": {"OBJECT_NAME": "COSMOS 2251 DEB", "OBJECT_ID": "1993-036ET", "EPOCH": "2025-12-24T15:13:27.542784", "MEAN_MOTION": 14.46827976, "ECCENTRICITY": 0.0016796, "INCLINATION": 74.0436, "RA_OF_ASC_NODE": 184.9681, "ARG_OF_PERICENTER": 266.1486, "MEAN_ANOMALY": 161.5825, "EPHEMERIS_TYPE": 0, "CLASSIFICATION_TYPE": "U", "NORAD_CAT_ID": 33938, "ELEMENT_SET_NO": 999, "REV_AT_EPOCH": 88572, "BSTAR": 0.00040613, "MEAN_MOTION_DOT": 1.448e-05, "MEAN_MOTION_DDOT": 0}, "tle": {"line1": "1 33938U 93036ET  25358.63434656  .00001448  00000+0  40613-3 0  9990", "line2": "2 33938  74.0436 184.9681 0016796 266.1486 161.5825 14.46827976885723"}}, "geometry": {"type": "Point", "coordinates": [162.26395905180246, -52.28658104715733]}}]}